{
  "norad_id": 59686,
  "name": "STARLINK-32100",
  "history": [
    {
      "epoch": "2026-03-28T21:08:04.060320Z",
      "apogee_km": 483.7717213791593,
      "perigee_km": 482.3028811847407,
      "latitude_deg": -1.011071634442652e-05,
      "longitude_deg": 150.0991738201977,
      "height_km": 482.7756941240337,
      "semi_major_axis_km": 6861.17430128195,
      "eccentricity": 0.00010704,
      "inclination_deg": 43.0031,
      "raan_deg": 293.4108,
      "arg_perigee_deg": 272.9955,
      "mean_anomaly_deg": 87.0774,
      "mean_motion_rev_day": 15.27583939
    }
  ]
}