{"fetched_at":"2026-03-29T16:36:15Z","count":15609,"tles":[{"name":"STARLINK-32100","line1":"1 59686U 24086E   26087.88060255 -.00000084  00000+0  64791-5 0  9995","line2":"2 59686  43.0031 293.4108 0001070 272.9955  87.0774 15.27583939107251","category":"Starlink"}]}